COMMENT,ORIGINATOR,NORAD_CAT_ID,OBJECT_NAME,OBJECT_TYPE,CLASSIFICATION_TYPE,INTLDES,EPOCH,EPOCH_MICROSECONDS,MEAN_MOTION,ECCENTRICITY,INCLINATION,RA_OF_ASC_NODE,ARG_OF_PERICENTER,MEAN_ANOMALY,EPHEMERIS_TYPE,ELEMENT_SET_NO,REV_AT_EPOCH,BSTAR,MEAN_MOTION_DOT,MEAN_MOTION_DDOT,FILE,TLE_LINE0,TLE_LINE1,TLE_LINE2,OBJECT_ID,OBJECT_NUMBER,SEMIMAJOR_AXIS,PERIOD,APOGEE,PERIGEE
"GENERATED VIA SPACETRACK.ORG API","JSPOC","10974","SL-14 R/B","ROCKET BODY","U","78067B","2016-01-12 20:31:05","18016","14.87105204","0.0015896","82.4841","302.8915","271.2838","88.6558","0","999","3007","3.0676e-05","3e-06","0","1979559","0 SL-14 R/B","1 10974U 78067B   16012.85491919  .00000300  00000-0  30676-4 0  9994","2 10974  82.4841 302.8915 0015896 271.2838  88.6558 14.87105204 30070","1978-067B","10974","6985.122","96.832","618.091","595.884"
"GENERATED VIA SPACETRACK.ORG API","JSPOC","41099","COSMOS 2512","PAYLOAD","U","15071B","2016-01-12 20:31:05","474208","14.61342329","0.0008091","98.1756","21.8719","123.9781","236.22","0","999","558","0.0001688","7.88e-06","0","1979633","0 COSMOS 2512","1 41099U 15071B   16012.85492447  .00000788  00000-0  16880-3 0  9999","2 41099  98.1756  21.8719 0008091 123.9781 236.2200 14.61342329  5586","2015-071B","41099","7066.980","98.539","694.562","683.127"
"GENERATED VIA SPACETRACK.ORG API","JSPOC","11697","COSMOS 1162","PAYLOAD","U","80012G","2016-01-12 20:31:13","63584","12.42694032","0.0030399","74.0183","219.3253","254.6883","238.5722","0","999","62938","-1.3534e-05","-1.8e-07","0","1979855","0 COSMOS 1162","1 11697U 80012G   16012.85501231 -.00000018 +00000-0 -13534-4 0  9991","2 11697 074.0183 219.3253 0030399 254.6883 238.5722 12.42694032629384","1980-012G","11697","7873.340","115.877","1519.139","1471.271"
"GENERATED VIA SPACETRACK.ORG API","JSPOC","19608","COSMOS 1977","PAYLOAD","U","88096A","2016-01-12 20:31:14","888352","2.00838249","0.5776497","69.0487","290.1225","149.1038","14.1787","0","999","19943","0","2.42e-06","0","1979855","0 COSMOS 1977","1 19608U 88096A   16012.85503343 +.00000242 +00000-0 +00000-0 0  9994","2 19608 069.0487 290.1225 5776497 149.1038 014.1787 02.00838249199432","1988-096A","19608","26536.128","716.994","35486.579","4829.406"
"GENERATED VIA SPACETRACK.ORG API","JSPOC","38339","SDS-4","PAYLOAD","U","12025C","2016-01-12 20:31:16","510080","14.70148514","0.0008764","98.3425","346.5916","117.9558","242.2535","0","999","19591","6.5688e-05","3.43e-06","0","1979855","0 SDS-4","1 38339U 12025C   16012.85505220 +.00000343 +00000-0 +65688-4 0  9990","2 38339 098.3425 346.5916 0008764 117.9558 242.2535 14.70148514195917","2012-025C","38339","7038.731","97.949","666.764","654.427"
"GENERATED VIA SPACETRACK.ORG API","JSPOC","15517","SL-14 R/B","ROCKET BODY","U","85013B","2016-01-12 20:31:19","155648","13.84866772","0.0014158","82.5372","136.8246","214.5406","302.2642","0","999","56333","1.7186e-05","3.4e-07","0","1979628","0 SL-14 R/B","1 15517U 85013B   16012.85508282  .00000034  00000-0  17186-4 0  9998","2 15517  82.5372 136.8246 0014158 214.5406 302.2642 13.84866772563330","1985-013B","15517","7324.812","103.981","957.047","936.307"
"GENERATED VIA SPACETRACK.ORG API","JSPOC","39448","BPA 3/SL-24","PAYLOAD","U","13066AJ","2016-01-12 20:31:23","166336","13.42528813","0.0679355","97.71","280.4345","295.4068","57.8256","0","999","10481","4.2085e-05","5.5e-07","0","1979855","0 BPA 3/SL-24","1 39448U 13066AJ  16012.85512924 +.00000055 +00000-0 +42085-4 0  9993","2 39448 097.7100 280.4345 0679355 295.4068 057.8256 13.42528813104813","2013-066AJ","39448","7478.010","107.260","1607.898","591.853"
"GENERATED VIA SPACETRACK.ORG API","JSPOC","19902","COSMOS 2008","PAYLOAD","U","89025A","2016-01-12 20:31:24","286080","12.57811577","0.0050645","74.0093","139.73","307.2737","217.5831","0","999","23068","-2.8067e-05","-2.1e-07","0","1979855","0 COSMOS 2008","1 19902U 89025A   16012.85514220 -.00000021 +00000-0 -28067-4 0  9994","2 19902 074.0093 139.7300 0050645 307.2737 217.5831 12.57811577230688","1989-025A","19902","7810.127","114.484","1471.546","1392.437"
"GENERATED VIA SPACETRACK.ORG API","JSPOC","25112","ORBCOMM FM 8","PAYLOAD","U","97084A","2016-01-12 20:31:25","933728","14.38165893","0.0008344","45.0153","180.0362","201.8984","158.1509","0","999","94526","0.00026834","6.8e-06","0","1979537","0 ORBCOMM FM 8","1 25112U 97084A   16012.85516127  .00000680  00000-0  26834-3 0  9994","2 25112  45.0153 180.0362 0008344 201.8984 158.1509 14.38165893945265","1997-084A","25112","7142.701","100.127","770.526","758.606"
"GENERATED VIA SPACETRACK.ORG API","JSPOC","10137","COSMOS 926","PAYLOAD","U","77062A","2016-01-12 20:31:36","931584","13.72261638","0.0033172","82.9435","296.671","143.0019","250.3181","0","999","92803","5.5712e-05","6.6e-07","0","1979855","0 COSMOS 926","1 10137U 77062A   16012.85528856 +.00000066 +00000-0 +55712-4 0  9997","2 10137 082.9435 296.6710 0033172 143.0019 250.3181 13.72261638928031","1977-062A","10137","7369.599","104.936","1015.911","967.018"
"GENERATED VIA SPACETRACK.ORG API","JSPOC","40715","DMC 3-FM1","PAYLOAD","U","15032A","2016-01-12 20:31:39","381024","14.73724444","0.0016783","98.0321","265.3065","12.7702","347.3925","0","999","2741","3.0358e-05","1.48e-06","0","1979630","0 DMC 3-FM1","1 40715U 15032A   16012.85531691  .00000148  00000-0  30358-4 0  9992","2 40715  98.0321 265.3065 0016783  12.7702 347.3925 14.73724444 27410","2015-032A","40715","7027.340","97.711","660.999","637.411"
"GENERATED VIA SPACETRACK.ORG API","JSPOC","36582","COMSATBW-2","PAYLOAD","U","10021B","2016-01-12 20:31:42","904416","1.00270865","0.0002494","0.0106","38.3215","266.5107","128.0359","0","999","2080","0","8.6e-07","0","1979583","0 COMSATBW-2","1 36582U 10021B   16012.85535769  .00000086  00000-0  00000+0 0  9999","2 36582   0.0106  38.3215 0002494 266.5107 128.0359  1.00270865 20808","2010-021B","36582","42164.989","1436.110","35797.370","35776.338"
"GENERATED VIA SPACETRACK.ORG API","JSPOC","29270","EUTE HOT BIRD 13B (HB 8)","PAYLOAD","U","06032A","2016-01-12 20:31:42","791232","1.00270772","0.0005248","0.066","25.646","286.8368","120.1908","0","999","915","0","8.5e-07","0","1979855","0 EUTE HOT BIRD 13B (HB 8)","1 29270U 06032A   16012.85535638 +.00000085 +00000-0 +00000-0 0  9997","2 29270 000.0660 025.6460 0005248 286.8368 120.1908 01.00270772009159","2006-032A","29270","42165.015","1436.111","35809.009","35764.752"
"GENERATED VIA SPACETRACK.ORG API","JSPOC","39000","CZ-2C R/B","ROCKET BODY","U","12064D","2016-01-12 20:31:57","878400","15.73577259","0.0003995","97.2982","47.7832","155.63","204.5154","0","999","17733","0.00038533","0.00053862","0","1979855","0 CZ-2C R/B","1 39000U 12064D   16012.85553100 +.00053862 +00000-0 +38533-3 0  9991","2 39000 097.2982 047.7832 0003995 155.6300 204.5154 15.73577259177331","2012-064D","39000","6726.819","91.511","351.372","345.997"
"GENERATED VIA SPACETRACK.ORG API","JSPOC","32021","ARIANE 5 R/B","ROCKET BODY","U","07036D","2016-01-12 20:32:02","143104","2.36296253","0.7193387","2.3008","309.6554","218.0014","59.3648","0","999","7111","0.00024035","2.82e-06","0","1980270","0 ARIANE 5 R/B","1 32021U 07036D   16012.85558036 +.00000282 +00000-0 +24035-3 0  9993","2 32021 002.3008 309.6554 7193387 218.0014 059.3648 02.36296253071112","2007-036D","32021","23810.249","609.404","34559.748","304.480"
"GENERATED VIA SPACETRACK.ORG API","JSPOC","20550","COSMOS 2065","PAYLOAD","U","90029B","2016-01-12 20:32:04","977888","12.49152694","0.0009204","73.9835","326.7356","274.3538","114.0728","0","999","17514","3.0002e-05","-1.2e-07","0","1979855","0 COSMOS 2065","1 20550U 90029B   16012.85561317 -.00000012 +00000-0 +30002-4 0  9991","2 20550 073.9835 326.7356 0009204 274.3538 114.0728 12.49152694175142","1990-029B","20550","7846.177","115.278","1475.264","1460.821"
"GENERATED VIA SPACETRACK.ORG API","JSPOC","21656","SL-14 R/B","ROCKET BODY","U","91056B","2016-01-12 20:32:05","655264","13.17044109","0.0012476","82.5583","309.9121","304.1886","73.2435","0","999","17337","-0.00034118","-1.19e-06","0","1979855","0 SL-14 R/B","1 21656U 91056B   16012.85562101 -.00000119 +00000-0 -34118-3 0  9992","2 21656 082.5583 309.9121 0012476 304.1886 073.2435 13.17044109173373","1991-056B","21656","7574.168","109.335","1205.483","1186.583"
"GENERATED VIA SPACETRACK.ORG API","JSPOC","25395","FASAT B","PAYLOAD","U","98043B","2016-01-12 20:32:07","719360","14.2507044","0.0003304","98.5006","326.1195","30.5825","329.5547","0","999","91024","5.4718e-05","8.6e-07","0","1979565","0 FASAT B","1 25395U 98043B   16012.85564490  .00000086  00000-0  54718-4 0  9992","2 25395  98.5006 326.1195 0003304  30.5825 329.5547 14.25070440910242","1998-043B","25395","7186.392","101.047","810.632","805.883"
"GENERATED VIA SPACETRACK.ORG API","JSPOC","28787","ARIANE 5 R/B","ROCKET BODY","U","05028B","2016-01-12 20:32:08","978208","2.26558907","0.7156926","6.8965","240.6341","163.4722","16.4808","0","999","8626","-0.00054443","-7.8e-07","0","1979855","0 ARIANE 5 R/B","1 28787U 05028B   16012.85565947 -.00000078 +00000-0 -54443-3 0  9996","2 28787 006.8965 240.6341 7156926 163.4722 016.4808 02.26558907086262","2005-028B","28787","24487.685","635.596","35635.206","583.895"
"GENERATED VIA SPACETRACK.ORG API","JSPOC","40555","COSMOS 2504","PAYLOAD","U","15020D","2016-01-12 20:32:09","116448","12.80064632","0.0211852","82.488","231.0142","318.7201","39.8044","0","999","3689","0.0001","3.4e-07","0","1979855","0 COSMOS 2504","1 40555U 15020D   16012.85566107 +.00000034 +00000-0 +10000-3 0  9996","2 40555 082.4880 231.0142 0211852 318.7201 039.8044 12.80064632036891","2015-020D","40555","7719.347","112.494","1504.748","1177.676"
